CCSDS_OMM_VERS = 2.0
CREATION_DATE  = 
ORIGINATOR     = 

OBJECT_NAME    = HTV-X1
OBJECT_ID      = 2025-241A
CENTER_NAME    = EARTH
REF_FRAME      = TEME
TIME_SYSTEM    = UTC
MEAN_ELEMENT_THEORY = SGP/SGP4

EPOCH          = 2026-03-27T06:10:44.810112
MEAN_MOTION    = 15.32421491
ECCENTRICITY   = .00073641
INCLINATION    = 51.6383
RA_OF_ASC_NODE = 348.4203
ARG_OF_PERICENTER = 239.2904
MEAN_ANOMALY   = 120.7352

EPHEMERIS_TYPE = 0
CLASSIFICATION_TYPE = U
NORAD_CAT_ID   = 66174
ELEMENT_SET_NO = 999
REV_AT_EPOCH   = 2363
BSTAR          = .98893131E-4
MEAN_MOTION_DOT = .2773E-4
MEAN_MOTION_DDOT = 0

CCSDS_OMM_VERS = 2.0
CREATION_DATE  = 
ORIGINATOR     = 

OBJECT_NAME    = SZ-21 MODULE
OBJECT_ID      = 2025-246C
CENTER_NAME    = EARTH
REF_FRAME      = TEME
TIME_SYSTEM    = UTC
MEAN_ELEMENT_THEORY = SGP/SGP4

EPOCH          = 2026-03-27T07:41:12.122880
MEAN_MOTION    = 15.69886344
ECCENTRICITY   = .00013734
INCLINATION    = 41.4743
RA_OF_ASC_NODE = 94.7188
ARG_OF_PERICENTER = 209.1832
MEAN_ANOMALY   = 150.8934

EPHEMERIS_TYPE = 0
CLASSIFICATION_TYPE = U
NORAD_CAT_ID   = 66515
ELEMENT_SET_NO = 999
REV_AT_EPOCH   = 2084
BSTAR          = .30508676E-3
MEAN_MOTION_DOT = .37451E-3
MEAN_MOTION_DDOT = 0

CCSDS_OMM_VERS = 2.0
CREATION_DATE  = 
ORIGINATOR     = 

OBJECT_NAME    = SHENZHOU-22
OBJECT_ID      = 2025-272A
CENTER_NAME    = EARTH
REF_FRAME      = TEME
TIME_SYSTEM    = UTC
MEAN_ELEMENT_THEORY = SGP/SGP4

EPOCH          = 2026-03-27T05:51:34.788096
MEAN_MOTION    = 15.61545149
ECCENTRICITY   = .0004214
INCLINATION    = 41.4668
RA_OF_ASC_NODE = 101.2760
ARG_OF_PERICENTER = 35.2291
MEAN_ANOMALY   = 324.8826

EPHEMERIS_TYPE = 0
CLASSIFICATION_TYPE = U
NORAD_CAT_ID   = 66645
ELEMENT_SET_NO = 999
REV_AT_EPOCH   = 28028
BSTAR          = .22856871E-3
MEAN_MOTION_DOT = .1989E-3
MEAN_MOTION_DDOT = 0

CCSDS_OMM_VERS = 2.0
CREATION_DATE  = 
ORIGINATOR     = 

OBJECT_NAME    = SOYUZ-MS 28
OBJECT_ID      = 2025-275A
CENTER_NAME    = EARTH
REF_FRAME      = TEME
TIME_SYSTEM    = UTC
MEAN_ELEMENT_THEORY = SGP/SGP4

EPOCH          = 2026-03-27T03:10:20.925696
MEAN_MOTION    = 15.48575012
ECCENTRICITY   = .0006239
INCLINATION    = 51.6343
RA_OF_ASC_NODE = 346.1324
ARG_OF_PERICENTER = 237.1062
MEAN_ANOMALY   = 122.9326

EPHEMERIS_TYPE = 0
CLASSIFICATION_TYPE = U
NORAD_CAT_ID   = 66664
ELEMENT_SET_NO = 999
REV_AT_EPOCH   = 55771
BSTAR          = .24583004E-3
MEAN_MOTION_DOT = .12923E-3
MEAN_MOTION_DDOT = 0

CCSDS_OMM_VERS = 2.0
CREATION_DATE  = 
ORIGINATOR     = 

OBJECT_NAME    = DUPLEX
OBJECT_ID      = 1998-067XS
CENTER_NAME    = EARTH
REF_FRAME      = TEME
TIME_SYSTEM    = UTC
MEAN_ELEMENT_THEORY = SGP/SGP4

EPOCH          = 2026-03-27T02:39:31.156992
MEAN_MOTION    = 15.57379758
ECCENTRICITY   = .00028687
INCLINATION    = 51.6307
RA_OF_ASC_NODE = 342.2411
ARG_OF_PERICENTER = 191.8140
MEAN_ANOMALY   = 168.2785

EPHEMERIS_TYPE = 0
CLASSIFICATION_TYPE = U
NORAD_CAT_ID   = 66906
ELEMENT_SET_NO = 999
REV_AT_EPOCH   = 1784
BSTAR          = .42022856E-3
MEAN_MOTION_DOT = .30995E-3
MEAN_MOTION_DDOT = 0

CCSDS_OMM_VERS = 2.0
CREATION_DATE  = 
ORIGINATOR     = 

OBJECT_NAME    = ISS OBJECT XT
OBJECT_ID      = 1998-067XT
CENTER_NAME    = EARTH
REF_FRAME      = TEME
TIME_SYSTEM    = UTC
MEAN_ELEMENT_THEORY = SGP/SGP4

EPOCH          = 2026-03-27T01:29:05.844480
MEAN_MOTION    = 15.75548676
ECCENTRICITY   = .00057392
INCLINATION    = 51.6250
RA_OF_ASC_NODE = 336.6305
ARG_OF_PERICENTER = 192.2616
MEAN_ANOMALY   = 167.8244

EPHEMERIS_TYPE = 0
CLASSIFICATION_TYPE = U
NORAD_CAT_ID   = 66907
ELEMENT_SET_NO = 999
REV_AT_EPOCH   = 1791
BSTAR          = .1380013E-2
MEAN_MOTION_DOT = .219962E-2
MEAN_MOTION_DDOT = 0

CCSDS_OMM_VERS = 2.0
CREATION_DATE  = 
ORIGINATOR     = 

OBJECT_NAME    = ISS OBJECT XU
OBJECT_ID      = 1998-067XU
CENTER_NAME    = EARTH
REF_FRAME      = TEME
TIME_SYSTEM    = UTC
MEAN_ELEMENT_THEORY = SGP/SGP4

EPOCH          = 2026-03-27T01:24:02.046528
MEAN_MOTION    = 15.75783311
ECCENTRICITY   = .0005927
INCLINATION    = 51.6238
RA_OF_ASC_NODE = 336.6028
ARG_OF_PERICENTER = 191.8620
MEAN_ANOMALY   = 168.2241

EPHEMERIS_TYPE = 0
CLASSIFICATION_TYPE = U
NORAD_CAT_ID   = 66908
ELEMENT_SET_NO = 999
REV_AT_EPOCH   = 1791
BSTAR          = .14272028E-2
MEAN_MOTION_DOT = .230149E-2
MEAN_MOTION_DDOT = 0

CCSDS_OMM_VERS = 2.0
CREATION_DATE  = 
ORIGINATOR     = 

OBJECT_NAME    = SILVERSAT
OBJECT_ID      = 1998-067XV
CENTER_NAME    = EARTH
REF_FRAME      = TEME
TIME_SYSTEM    = UTC
MEAN_ELEMENT_THEORY = SGP/SGP4

EPOCH          = 2026-03-27T01:56:47.679360
MEAN_MOTION    = 15.80729588
ECCENTRICITY   = .00067336
INCLINATION    = 51.6220
RA_OF_ASC_NODE = 335.2430
ARG_OF_PERICENTER = 198.1524
MEAN_ANOMALY   = 161.9239

EPHEMERIS_TYPE = 0
CLASSIFICATION_TYPE = U
NORAD_CAT_ID   = 66909
ELEMENT_SET_NO = 999
REV_AT_EPOCH   = 1793
BSTAR          = .15697834E-2
MEAN_MOTION_DOT = .319643E-2
MEAN_MOTION_DDOT = 0

CCSDS_OMM_VERS = 2.0
CREATION_DATE  = 
ORIGINATOR     = 

OBJECT_NAME    = ISS OBJECT XW
OBJECT_ID      = 1998-067XW
CENTER_NAME    = EARTH
REF_FRAME      = TEME
TIME_SYSTEM    = UTC
MEAN_ELEMENT_THEORY = SGP/SGP4

EPOCH          = 2026-03-27T01:37:05.835360
MEAN_MOTION    = 15.74199990
ECCENTRICITY   = .00061614
INCLINATION    = 51.6237
RA_OF_ASC_NODE = 336.6606
ARG_OF_PERICENTER = 190.5298
MEAN_ANOMALY   = 169.5573

EPHEMERIS_TYPE = 0
CLASSIFICATION_TYPE = U
NORAD_CAT_ID   = 66910
ELEMENT_SET_NO = 999
REV_AT_EPOCH   = 1791
BSTAR          = .12967865E-2
MEAN_MOTION_DOT = .194306E-2
MEAN_MOTION_DDOT = 0

CCSDS_OMM_VERS = 2.0
CREATION_DATE  = 
ORIGINATOR     = 

OBJECT_NAME    = ISS OBJECT XX
OBJECT_ID      = 1998-067XX
CENTER_NAME    = EARTH
REF_FRAME      = TEME
TIME_SYSTEM    = UTC
MEAN_ELEMENT_THEORY = SGP/SGP4

EPOCH          = 2026-03-27T02:13:32.671200
MEAN_MOTION    = 15.86861500
ECCENTRICITY   = .00083895
INCLINATION    = 51.6197
RA_OF_ASC_NODE = 333.7874
ARG_OF_PERICENTER = 202.2117
MEAN_ANOMALY   = 157.8525

EPHEMERIS_TYPE = 0
CLASSIFICATION_TYPE = U
NORAD_CAT_ID   = 66911
ELEMENT_SET_NO = 999
REV_AT_EPOCH   = 1794
BSTAR          = .16973803E-2
MEAN_MOTION_DOT = .470858E-2
MEAN_MOTION_DDOT = 0

CCSDS_OMM_VERS = 2.0
CREATION_DATE  = 
ORIGINATOR     = 

OBJECT_NAME    = ISS OBJECT XY
OBJECT_ID      = 1998-067XY
CENTER_NAME    = EARTH
REF_FRAME      = TEME
TIME_SYSTEM    = UTC
MEAN_ELEMENT_THEORY = SGP/SGP4

EPOCH          = 2026-03-27T01:45:36.311616
MEAN_MOTION    = 15.67194641
ECCENTRICITY   = .00041886
INCLINATION    = 51.6273
RA_OF_ASC_NODE = 338.9792
ARG_OF_PERICENTER = 189.6514
MEAN_ANOMALY   = 170.4402

EPHEMERIS_TYPE = 0
CLASSIFICATION_TYPE = U
NORAD_CAT_ID   = 66912
ELEMENT_SET_NO = 999
REV_AT_EPOCH   = 1787
BSTAR          = .1022182E-2
MEAN_MOTION_DOT = .112875E-2
MEAN_MOTION_DDOT = 0

CCSDS_OMM_VERS = 2.0
CREATION_DATE  = 
ORIGINATOR     = 

OBJECT_NAME    = KNACKSAT-2
OBJECT_ID      = 1998-067XZ
CENTER_NAME    = EARTH
REF_FRAME      = TEME
TIME_SYSTEM    = UTC
MEAN_ELEMENT_THEORY = SGP/SGP4

EPOCH          = 2026-03-26T23:28:34.821984
MEAN_MOTION    = 15.53246131
ECCENTRICITY   = .0009919
INCLINATION    = 51.6326
RA_OF_ASC_NODE = 345.8555
ARG_OF_PERICENTER = 248.4821
MEAN_ANOMALY   = 111.5112

EPHEMERIS_TYPE = 0
CLASSIFICATION_TYPE = U
NORAD_CAT_ID   = 67683
ELEMENT_SET_NO = 999
REV_AT_EPOCH   = 747
BSTAR          = .66435E-3
MEAN_MOTION_DOT = .4242E-3
MEAN_MOTION_DDOT = 0

