HTV-X1                  
1 66174U 25241A   26086.25746308  .00002773  00000+0  98893-4 0  9994
2 66174  51.6383 348.4203 0007364 239.2904 120.7352 15.32421491 23631
SZ-21 MODULE            
1 66515U 25246C   26086.32027920  .00037451  00000+0  30509-3 0  9998
2 66515  41.4743  94.7188 0001373 209.1832 150.8934 15.69886344 20842
SHENZHOU-22             
1 66645U 25272A   26086.24415264  .00019890  00000+0  22857-3 0  9998
2 66645  41.4668 101.2760 0004214  35.2291 324.8826 15.61545149280282
SOYUZ-MS 28             
1 66664U 25275A   26086.13218664  .00012923  00000+0  24583-3 0  9993
2 66664  51.6343 346.1324 0006239 237.1062 122.9326 15.48575012557714
DUPLEX                  
1 66906U 98067XS  26086.11077728  .00030995  00000+0  42023-3 0  9991
2 66906  51.6307 342.2411 0002868 191.8140 168.2785 15.57379758 17840
ISS OBJECT XT           
1 66907U 98067XT  26086.06187320  .00219962  00000+0  13800-2 0  9999
2 66907  51.6250 336.6305 0005739 192.2616 167.8244 15.75548676 17910
ISS OBJECT XU           
1 66908U 98067XU  26086.05835702  .00230149  00000+0  14272-2 0  9997
2 66908  51.6238 336.6028 0005927 191.8620 168.2241 15.75783311 17917
SILVERSAT               
1 66909U 98067XV  26086.08110740  .00319643  00000+0  15698-2 0  9999
2 66909  51.6220 335.2430 0006733 198.1524 161.9239 15.80729588 17931
ISS OBJECT XW           
1 66910U 98067XW  26086.06742865  .00194306  00000+0  12968-2 0  9992
2 66910  51.6237 336.6606 0006161 190.5298 169.5573 15.74199990 17914
ISS OBJECT XX           
1 66911U 98067XX  26086.09273925  .00470858  00000+0  16974-2 0  9992
2 66911  51.6197 333.7874 0008389 202.2117 157.8525 15.86861500 17946
ISS OBJECT XY           
1 66912U 98067XY  26086.07333694  .00112875  00000+0  10222-2 0  9993
2 66912  51.6273 338.9792 0004188 189.6514 170.4402 15.67194641 17871
KNACKSAT-2              
1 67683U 98067XZ  26085.97818081  .00042420  00000+0  66435-3 0  9991
2 67683  51.6326 345.8555 0009919 248.4821 111.5112 15.53246131  7478
